     2              NAVIGATION DATA                         RINEX VERSION / TYPE
CCRINEXN V1.6.0 UX  CDDIS               03-JAN-22 03:31     PGM / RUN BY / DATE 
IGS BROADCAST EPHEMERIS FILE                                COMMENT             
    0.1118D-07 -0.7451D-08 -0.5960D-07  0.1192D-06          ION ALPHA           
    0.1167D+06 -0.2294D+06 -0.1311D+06  0.1049D+07          ION BETA            
   -0.931322574615D-09-0.177635683940D-14   233472     2191 DELTA-UTC: A0,A1,T,W
    18                                                      LEAP SECONDS        
                                                            END OF HEADER       
14 22  1  2  4  0  0.0-0.645746476948D-04-0.568434188608D-11 0.000000000000D+00
    0.380000000000D+02 0.106875000000D+03 0.428589281035D-08 0.199640190741D+00
    0.558793544769D-05 0.127236801200D-02 0.115651637316D-04 0.515365359688D+04
    0.144000000000D+05 0.279396772385D-07 0.305954702605D+01 0.204890966415D-07
    0.954746519928D+00 0.153812500000D+03 0.306529986069D+01-0.778532429001D-08
   -0.244653047924D-09 0.100000000000D+01 0.219100000000D+04 0.000000000000D+00
    0.200000000000D+01 0.000000000000D+00-0.791624188423D-08 0.550000000000D+03
    0.721800000000D+04 0.400000000000D+01 0.000000000000D+00 0.000000000000D+00
15 22  1  2  4  0  0.0-0.946605578065D-04 0.284217094304D-11 0.000000000000D+00
    0.770000000000D+02 0.180625000000D+02 0.532022160859D-08 0.280391902058D+01
    0.845640897751D-06 0.139133336488D-01 0.774860382080D-05 0.515371177483D+04
    0.144000000000D+05 0.707805156708D-07 0.800773449966D+00-0.113621354103D-06
    0.929635425767D+00 0.212125000000D+03 0.106840714866D+01-0.802962018020D-08
    0.677171064036D-09 0.100000000000D+01 0.219100000000D+04 0.000000000000D+00
    0.200000000000D+01 0.000000000000D+00-0.107102096081D-07 0.770000000000D+02
    0.727600000000D+04 0.400000000000D+01 0.000000000000D+00 0.000000000000D+00
17 22  1  2  4  0  0.0 0.555746257305D-03 0.511590769747D-11 0.000000000000D+00
    0.400000000000D+02 0.121093750000D+03 0.417695970142D-08-0.255604860344D+01
    0.641122460365D-05 0.137506816536D-01 0.100024044514D-05 0.515373854446D+04
    0.144000000000D+05 0.132247805595D-06-0.215607767489D+01 0.180676579475D-06
    0.980220855185D+00 0.368468750000D+03-0.151342369187D+01-0.797390357366D-08
    0.360014996070D-09 0.100000000000D+01 0.219100000000D+04 0.000000000000D+00
    0.200000000000D+01 0.000000000000D+00-0.111758708954D-07 0.400000000000D+02
    0.721800000000D+04 0.400000000000D+01 0.000000000000D+00 0.000000000000D+00
18 22  1  2  4  0  0.0 0.268676318228D-03-0.704858393874D-11 0.000000000000D+00
    0.115000000000D+03-0.139906250000D+03 0.452983154281D-08 0.170675148473D+01
   -0.707805156708D-05 0.209716160316D-02 0.133365392685D-05 0.515363549042D+04
    0.144000000000D+05 0.521540641785D-07-0.114936256137D+01 0.726431608200D-07
    0.970176976062D+00 0.359093750000D+03 0.309934811451D+01-0.842642242289D-08
   -0.362157942475D-09 0.100000000000D+01 0.219100000000D+04 0.000000000000D+00
    0.200000000000D+01 0.000000000000D+00-0.838190317154D-08 0.883000000000D+03
    0.721800000000D+04 0.400000000000D+01 0.000000000000D+00 0.000000000000D+00
20 22  1  2  4  0  0.0 0.517363194376D-03-0.227373675443D-12 0.000000000000D+00
    0.250000000000D+02-0.134281250000D+03 0.450340187048D-08 0.259085358089D+01
   -0.698305666447D-05 0.536409066990D-02 0.113658607006D-04 0.515372382927D+04
    0.144000000000D+05-0.651925802231D-07-0.275436497036D+00 0.204890966415D-07
    0.941590629304D+00 0.152156250000D+03 0.308893984005D+01-0.788104256277D-08
    0.271439877989D-10 0.100000000000D+01 0.219100000000D+04 0.000000000000D+00
    0.200000000000D+01 0.000000000000D+00-0.838190317154D-08 0.250000000000D+02
    0.115080000000D+05 0.400000000000D+01 0.000000000000D+00 0.000000000000D+00
21 22  1  2  4  0  0.0 0.155189074576D-03 0.909494701773D-12 0.000000000000D+00
    0.500000000000D+02-0.104906250000D+03 0.460447750926D-08-0.240743908709D+01
   -0.485405325890D-05 0.244433510816D-01-0.946223735809D-06 0.515360345078D+04
    0.144000000000D+05 0.113621354103D-06-0.124756696174D+01 0.430271029472D-06
    0.958952519124D+00 0.394312500000D+03-0.103476209555D+01-0.812498129523D-08
   -0.215366113720D-09 0.100000000000D+01 0.219100000000D+04 0.000000000000D+00
    0.200000000000D+01 0.000000000000D+00-0.102445483208D-07 0.500000000000D+02
    0.721800000000D+04 0.400000000000D+01 0.000000000000D+00 0.000000000000D+00
22 22  1  2  4  0  0.0-0.427241437137D-03 0.886757334229D-11 0.000000000000D+00
    0.680000000000D+02-0.141062500000D+03 0.461054919074D-08 0.261413891964D+01
   -0.730343163014D-05 0.685147603508D-02 0.103227794170D-04 0.515365097427D+04
    0.144000000000D+05 0.894069671631D-07-0.229625501190D+00 0.119209289551D-06
    0.938321591101D+00 0.166656250000D+03-0.864450945817D+00-0.785532720591D-08
    0.814319633967D-10 0.100000000000D+01 0.219100000000D+04 0.000000000000D+00
    0.200000000000D+01 0.630000000000D+02-0.176951289177D-07 0.680000000000D+02
    0.721800000000D+04 0.400000000000D+01 0.000000000000D+00 0.000000000000D+00
23 22  1  2  4  0  0.0 0.154622830450D-04-0.397903932026D-11 0.000000000000D+00
    0.151000000000D+03-0.137562500000D+03 0.401159567049D-08 0.875111033830D+00
   -0.715255737305D-05 0.195426051505D-02 0.118836760521D-04 0.515370326042D+04
    0.144000000000D+05 0.558793544769D-08-0.149920026165D+00 0.223517417908D-07
    0.967331736450D+00 0.151843750000D+03 0.289587460734D+01-0.765496171703D-08
    0.182864759908D-09 0.100000000000D+01 0.219100000000D+04 0.000000000000D+00
    0.200000000000D+01 0.000000000000D+00-0.838190317154D-08 0.151000000000D+03
    0.121380000000D+05 0.400000000000D+01 0.000000000000D+00 0.000000000000D+00
24 22  1  2  4  0  0.0 0.276753213257D-03 0.795807864051D-12 0.000000000000D+00
    0.180000000000D+02-0.179375000000D+02 0.544165523821D-08 0.182331356863D+01
   -0.103004276753D-05 0.122488520574D-01 0.653788447380D-05 0.515369042778D+04
    0.144000000000D+05-0.258907675743D-06 0.189606916019D+01-0.465661287308D-07
    0.934068423036D+00 0.240937500000D+03 0.796982277282D+00-0.836141971527D-08
   -0.499663670140D-09 0.100000000000D+01 0.219100000000D+04 0.000000000000D+00
    0.200000000000D+01 0.000000000000D+00 0.232830643654D-08 0.180000000000D+02
    0.724900000000D+04 0.400000000000D+01 0.000000000000D+00 0.000000000000D+00
25 22  1  2  4  0  0.0 0.264768488705D-03 0.568434188608D-11 0.000000000000D+00
    0.560000000000D+02 0.116562500000D+03 0.427839249794D-08-0.341594706962D-01
    0.605918467045D-05 0.102859298931D-01 0.116210430860D-04 0.515373856163D+04
    0.144000000000D+05-0.242143869400D-07 0.301398604583D+01 0.124797224999D-06
    0.958731693103D+00 0.160000000000D+03 0.966702604141D+00-0.787711382769D-08
   -0.323227749447D-09 0.100000000000D+01 0.219100000000D+04 0.000000000000D+00
    0.200000000000D+01 0.000000000000D+00 0.558793544769D-08 0.560000000000D+02
    0.136090000000D+05 0.400000000000D+01 0.000000000000D+00 0.000000000000D+00
26 22  1  2  4  0  0.0 0.170602463186D-03 0.352429196937D-11 0.000000000000D+00
    0.100000000000D+02 0.106562500000D+03 0.464983654150D-08-0.680667006684D+00
    0.553019344807D-05 0.672153790947D-02 0.121127814054D-04 0.515368283653D+04
    0.144000000000D+05 0.106170773506D-06 0.296785549747D+01 0.000000000000D+00
    0.939565737096D+00 0.131781250000D+03 0.337007604439D+00-0.796747473445D-08
   -0.393944980818D-09 0.100000000000D+01 0.219100000000D+04 0.000000000000D+00
    0.200000000000D+01 0.000000000000D+00 0.698491930962D-08 0.100000000000D+02
    0.721800000000D+04 0.400000000000D+01 0.000000000000D+00 0.000000000000D+00
27 22  1  2  4  0  0.0 0.428613275290D-04 0.248974174610D-10 0.000000000000D+00
    0.900000000000D+02 0.149531250000D+03 0.435911014586D-08-0.254372742901D+01
    0.752136111260D-05 0.994062179234D-02 0.194087624550D-05 0.515365208054D+04
    0.144000000000D+05 0.298023223877D-07-0.221826857972D+01-0.232830643654D-06
    0.973884348409D+00 0.349937500000D+03 0.627963279203D+00-0.819284126472D-08
    0.405731186047D-09 0.100000000000D+01 0.219100000000D+04 0.000000000000D+00
    0.280000000000D+01 0.000000000000D+00 0.186264514923D-08 0.900000000000D+02
    0.721800000000D+04 0.400000000000D+01 0.000000000000D+00 0.000000000000D+00
28 22  1  2  4  0  0.0 0.430746935308D-03-0.795807864051D-11 0.000000000000D+00
    0.250000000000D+02 0.125968750000D+03 0.377051419991D-08-0.209054201414D+01
    0.678002834320D-05 0.170809016563D-01 0.110976397991D-04 0.515371809769D+04
    0.144000000000D+05 0.143423676491D-06 0.311222367345D+01 0.357627868652D-06
    0.970447452060D+00 0.169125000000D+03-0.129624766158D+01-0.738102173490D-08
   -0.188579283655D-09 0.100000000000D+01 0.219100000000D+04 0.000000000000D+00
    0.200000000000D+01 0.630000000000D+02-0.111758708954D-07 0.250000000000D+02
    0.721800000000D+04 0.400000000000D+01 0.000000000000D+00 0.000000000000D+00
30 22  1  2  4  0  0.0-0.503787770867D-03-0.272848410532D-11 0.000000000000D+00
    0.102000000000D+03-0.244375000000D+02 0.538522431621D-08 0.856277843409D+00
   -0.116974115372D-05 0.538203434553D-02 0.678189098835D-05 0.515358888435D+04
    0.144000000000D+05-0.521540641785D-07 0.199190770019D+01 0.100582838059D-06
    0.935839294149D+00 0.235593750000D+03-0.275238900837D+01-0.836391981940D-08
   -0.578238371663D-09 0.100000000000D+01 0.219100000000D+04 0.000000000000D+00
    0.200000000000D+01 0.000000000000D+00 0.372529029846D-08 0.102000000000D+03
    0.721800000000D+04 0.400000000000D+01 0.000000000000D+00 0.000000000000D+00
